ONEWEB-0555             
1 56057U 23043M   26021.38113688 -.00000048  00000+0 -15962-3 0  9993
2 56057  87.9023 257.9979 0001947  90.7039 269.4315 13.16594924139648
ONEWEB-0557             
1 56058U 23043N   26021.39538897 -.00000061  00000+0 -19402-3 0  9996
2 56058  87.9021 258.0069 0002768  73.5336 286.6099 13.16594751139648
ONEWEB-0558             
1 56059U 23043P   26021.44147689 -.00000033  00000+0 -11098-3 0  9990
2 56059  87.9212 273.2558 0001104  87.8110 272.3151 13.21826545138852
ONEWEB-0559             
1 56060U 23043Q   26021.42994471 -.00000068  00000+0 -19551-3 0  9999
2 56060  87.9211 273.2518 0001288  73.1496 286.9779 13.21823568138867
ONEWEB-0566             
1 56061U 23043R   26021.42335727  .00000038  00000+0  59663-4 0  9997
2 56061  87.9210 273.2521 0001206  77.8503 282.2766 13.21824556138842
ONEWEB-0568             
1 56062U 23043S   26021.41280020  .00000051  00000+0  99441-4 0  9995
2 56062  87.9025 257.9928 0001715  86.7147 273.4180 13.16595501139667
ONEWEB-0574             
1 56063U 23043T   26021.41679612  .00000192  00000+0  43236-3 0  9991
2 56063  87.9218 273.2415 0001715  73.7234 286.4088 13.21826618138883
ONEWEB-0575             
1 56064U 23043U   26021.40646433 -.00000015  00000+0 -74088-4 0  9992
2 56064  87.9019 257.9929 0001915  76.1921 283.9423 13.16595016139654
ONEWEB-0576             
1 56065U 23043V   26021.38746538  .00000059  00000+0  12121-3 0  9992
2 56065  87.9026 257.9988 0001710  78.3872 281.7451 13.16595797139642
ONEWEB-0577             
1 56066U 23043W   26021.39379770  .00000107  00000+0  24558-3 0  9995
2 56066  87.9025 257.9968 0002185  67.6634 292.4729 13.16595320139676
ONEWEB-0578             
1 56067U 23043X   26021.40362144  .00000147  00000+0  32462-3 0  9992
2 56067  87.9215 273.2548 0001739  84.8639 275.2693 13.21828429138845
ONEWEB-0579             
1 56068U 23043Y   26021.39375357  .00000052  00000+0  94667-4 0  9992
2 56068  87.9216 273.2447 0001375  68.9260 291.2021 13.21825839138850
ONEWEB-0581             
1 56069U 23043Z   26021.40013111  .00000018  00000+0  14395-4 0  9994
2 56069  87.9021 258.0080 0001788  67.8031 292.3289 13.16594922139647
ONEWEB-0609             
1 56070U 23043AA  26020.70859580  .00000029  00000+0  42944-4 0  9999
2 56070  87.9006 288.6570 0001519  76.8589 283.2711 13.15549464137046
ONEWEB-0613             
1 56071U 23043AB  26020.77990363 -.00000131  00000+0 -38241-3 0  9992
2 56071  87.9003 288.6543 0001324  69.8617 290.2656 13.15548915137059
ONEWEB-0630             
1 56072U 23043AC  26020.69909026 -.00000073  00000+0 -22901-3 0  9991
2 56072  87.9002 288.6413 0001325  67.9742 292.1529 13.15548980137034
ONEWEB-0632             
1 56073U 23043AD  26020.69432211 -.00000107  00000+0 -31697-3 0  9999
2 56073  87.9003 288.6595 0001707  69.4663 290.6650 13.15545926137035
ONEWEB-0633             
1 56074U 23043AE  26020.76405044 -.00000140  00000+0 -40685-3 0  9996
2 56074  87.9009 288.6093 0001174  73.4963 286.6297 13.15549409137022
ONEWEB-0634             
1 56075U 23043AF  26020.74979322  .00000001  00000+0 -32493-4 0  9994
2 56075  87.9009 288.6638 0001508  87.4164 272.7139 13.15549139137017
ONEWEB-0635             
1 56076U 23043AG  26020.74503372 -.00000032  00000+0 -11870-3 0  9993
2 56076  87.9008 288.6173 0001788  67.6748 292.4571 13.15549198137046
ONEWEB-0636             
1 56077U 23043AH  26020.73710391  .00000081  00000+0  17995-3 0  9990
2 56077  87.9002 288.6356 0001752  69.6991 290.4328 13.15550238137020
ONEWEB-0637             
1 56078U 23043AJ  26020.73079402  .00000352  00000+0  90149-3 0  9995
2 56078  87.9003 288.6541 0001873  78.7250 281.4091 13.15548415137044
ONEWEB-0647             
1 56079U 23043AK  26020.72602965  .00000132  00000+0  31657-3 0  9996
2 56079  87.9002 288.6680 0001584  69.4786 290.6515 13.15549120137034
ONEWEB-0651             
1 56080U 23043AL  26020.72128116  .00000141  00000+0  34176-3 0  9998
2 56080  87.9003 288.6628 0001855  73.4880 286.6454 13.15549108138236
ONEWEB-0718             
1 56081U 23043AM  26020.79257881  .00000015  00000+0  53856-5 0  9996
2 56081  87.9004 288.6290 0001495  96.0225 264.1076 13.15547278137053
ONEWEB-0561             
1 56710U 23068A   26020.77505936 -.00000034  00000+0 -11675-3 0  9991
2 56710  87.9225 303.8583 0001891  62.9252 297.2074 13.20773249130046
ONEWEB-0668             
1 56711U 23068B   26020.69082743  .00000040  00000+0  70171-4 0  9991
2 56711  87.9034 258.1263 0001757  97.4003 262.7327 13.16595134132376
ONEWEB-0676             
1 56712U 23068C   26020.39475418  .00000072  00000+0  15407-3 0  9999
2 56712  87.9021 258.2031 0001742  73.5331 286.5991 13.16594241132256
ONEWEB-0677             
1 56713U 23068D   26020.91552498  .00000039  00000+0  65112-4 0  9994
2 56713  87.9236 303.8180 0001861  77.6327 282.5014 13.20772302130362
ONEWEB-0678             
1 56714U 23068E   26020.68482620 -.00000095  00000+0 -28552-3 0  9998
2 56714  87.9014 288.6288 0001442  64.6811 295.4469 13.15549971129896
ONEWEB-0679             
1 56715U 23068F   26020.65758610 -.00000008  00000+0 -53562-4 0  9995
2 56715  87.9030 258.1335 0002017  85.4526 274.6835 13.16594946132313
ONEWEB-0680             
1 56716U 23068G   26020.71577953  .00000069  00000+0  13606-3 0  9991
2 56716  87.9220 273.3797 0001968  92.6936 267.4423 13.21826217131615
ONEWEB-0681             
1 56717U 23068H   26020.69520441  .00000012  00000+0 -27140-5 0  9998
2 56717  87.9208 273.3964 0002419  59.6691 300.4682 13.21824343131603
ONEWEB-0682             
1 56718U 23068J   26020.78701748 -.00000009  00000+0 -57691-4 0  9990
2 56718  87.9001 288.6195 0001914  88.2040 271.9310 13.15550724130077
ONEWEB-0683             
1 56719U 23068K   26020.73236880  .00000113  00000+0  26549-3 0  9997
2 56719  87.9012 288.6186 0001664  83.5266 276.6054 13.15548966130038
ONEWEB-0684             
1 56720U 23068L   26020.74027715  .00000056  00000+0  11504-3 0  9996
2 56720  87.9011 288.6106 0000432  17.5118 342.6027 13.15546652129869
ONEWEB-0686             
1 56721U 23068M   26020.62086048 -.00000011  00000+0 -62300-4 0  9992
2 56721  87.9014 258.1879 0001322  93.9750 266.1532 13.17180647132293
ONEWEB-0694             
1 56722U 23068N   26020.70032207 -.00000020  00000+0 -86460-4 0  9993
2 56722  87.9036 258.1073 0001686  94.5555 265.5769 13.16593294132365
ONEWEB-0696             
1 56723U 23068P   26020.77356160 -.00002095  00000+0 -56013-2 0  9991
2 56723  87.9012 288.6524 0001095  51.2081 308.9147 13.15537037129985
ONEWEB-0703             
1 56724U 23068Q   26020.78307606 -.00000048  00000+0 -16154-3 0  9993
2 56724  87.9001 288.6328 0001639  38.3621 321.7626 13.15548505129871
ONEWEB-0721             
1 56725U 23068R   26020.83089186 -.00000047  00000+0 -14698-3 0  9990
2 56725  86.6822 132.5426 0001594 107.3140 252.8167 13.22456913138466
ONEWEB-0015             
1 61594U 24188A   26020.59892060  .00000514  00000+0  14153-2 0  9992
2 61594  87.8814  50.4754 0002358  88.6630 271.4768 13.11416703 65112
ONEWEB-0687             
1 61595U 24188B   26020.99054633  .00000044  00000+0  80800-4 0  9995
2 61595  87.9073  35.1446 0002358  98.3964 261.7435 13.17650181 66511
ONEWEB-0688             
1 61596U 24188C   26020.94329040 -.00000031  00000+0 -11259-3 0  9997
2 61596  87.9071  35.1541 0003083  81.6955 278.4526 13.17650480 66504
ONEWEB-0689             
1 61597U 24188D   26020.55652085 -.00000364  00000+0 -10638-2 0  9991
2 61597  87.8821  50.4182 0001951 103.9587 256.1758 13.11416847 65105
ONEWEB-0690             
1 61598U 24188E   26020.79558970 -.00000507  00000+0 -14675-2 0  9990
2 61598  87.8831  50.3902 0001433  72.3456 287.7829 13.11417566 65316
ONEWEB-0691             
1 61599U 24188F   26020.79050552 -.00000398  00000+0 -11575-2 0  9998
2 61599  87.8834  50.2892 0002235  91.7823 268.3561 13.11417324 65164
ONEWEB-0692             
1 61600U 24188G   26020.81084553 -.00000148  00000+0 -45345-3 0  9998
2 61600  87.8816  50.4264 0001432 125.5030 234.6232 13.11419657 65157
ONEWEB-0693             
1 61601U 24188H   26020.95510887  .00000047  00000+0  87984-4 0  9990
2 61601  87.9076  35.1728 0001743  64.1852 295.9460 13.17647921 66491
ONEWEB-0695             
1 61602U 24188J   26020.78711186 -.00000336  00000+0 -98353-3 0  9991
2 61602  87.8816  50.4213 0001850 112.6446 247.4878 13.11416568 65140
ONEWEB-0697             
1 61603U 24188K   26020.81933021  .00000232  00000+0  61751-3 0  9995
2 61603  87.8818  50.4043 0001392 120.3519 239.7747 13.11419065 65135
ONEWEB-0698             
1 61604U 24188L   26020.79728473 -.00000459  00000+0 -13296-2 0  9999
2 61604  87.8818  50.4242 0000588  97.3572 262.7623 13.11418985 65156
ONEWEB-0699             
1 61605U 24188M   26020.61645705 -.00000499  00000+0 -14648-2 0  9993
2 61605  87.8779  65.6766 0001359 117.2224 242.9042 13.10375120 63981
ONEWEB-0700             
1 61606U 24188N   26020.54176118 -.00000442  00000+0 -13013-2 0  9996
2 61606  87.8791  65.5805 0001974 120.0134 240.1190 13.10375508 63966
ONEWEB-0701             
1 61607U 24188P   26020.63473161  .00000386  00000+0  10690-2 0  9998
2 61607  87.8777  65.6727 0001312 124.9604 235.1647 13.10376349 63983
ONEWEB-0702             
1 61608U 24188Q   26020.99566066  .00000495  00000+0  13609-2 0  9999
2 61608  87.8809  50.2660 0001646 130.3235 229.8037 13.11414376 65199
ONEWEB-0704             
1 61609U 24188R   26020.54674159 -.00000148  00000+0 -46028-3 0  9993
2 61609  87.8790  65.6609 0001781 129.1675 230.9611 13.10376487 63958
ONEWEB-0705             
1 61610U 24188S   26020.55173356  .00000074  00000+0  17685-3 0  9992
2 61610  87.8779  65.6779 0002732 117.4592 242.6813 13.10375991 56124
ONEWEB-0706             
1 61611U 24188T   26020.61313613 -.00000605  00000+0 -17697-2 0  9996
2 61611  87.8770  65.6831 0001957 117.9929 242.1397 13.10374614 64056
